STARLINK-32820          
1 63041U 25034N   26164.75194792  .00032783  00000+0  11125-2 0  9995
2 63041  53.1596 171.9757 0001440  85.7372 274.3794 15.30245900 73794
STARLINK-32795          
1 63042U 25034P   26164.73626380  .00011263  00000+0  34386-3 0  9992
2 63042  53.1591 171.1676 0001448  91.8734 268.2434 15.34411823 73808
STARLINK-32827          
1 63043U 25034Q   26164.78262561  .00026578  00000+0  79497-3 0  9992
2 63043  53.1581 183.5345 0001164  65.6496 294.4628 15.34399306 73635
STARLINK-32735          
1 63044U 25034R   26164.76368073  .00014141  00000+0  42869-3 0  9992
2 63044  53.1583 183.4166 0001231  98.5626 261.5517 15.34411704 73632
STARLINK-32828          
1 63045U 25034S   26164.88208931  .00019073  00000+0  65441-3 0  9992
2 63045  53.1555 184.1501 0001304 110.1112 250.0029 15.30201504 73637
STARLINK-32738          
1 63046U 25034T   26164.31397309  .00016266  00000+0  49160-3 0  9990
2 63046  53.1581 173.5092 0000496  63.9792 296.1262 15.34393018 73731
STARLINK-32590          
1 63047U 25034U   26164.75409444  .00017890  00000+0  61545-3 0  9998
2 63047  53.1581 171.9930 0000900  56.2813 303.8273 15.30159890 73781
STARLINK-32790          
1 63048U 25034V   26164.71531057  .00024200  00000+0  72512-3 0  9990
2 63048  53.1561 171.7497 0001269 105.4098 254.7045 15.34397371 73791
STARLINK-32829          
1 63049U 25034W   26164.78051838  .00020420  00000+0  61390-3 0  9994
2 63049  53.1572 183.5180 0001446  98.7679 261.3488 15.34396982 73635
STARLINK-32816          
1 63050U 25034X   26164.77841523  .00031716  00000+0  94566-3 0  9994
2 63050  53.1573 183.5033 0001082  91.6476 268.4651 15.34406563 73635
STARLINK-32835          
1 63051U 25034Y   26164.76579137  .00020068  00000+0  60342-3 0  9996
2 63051  53.1587 183.4331 0001244  79.1527 280.9616 15.34402471 73633
STARLINK-11550 [DTC]    
1 63052U 25035A   26164.70272959  .00191466  00000+0  14579-2 0  9995
2 63052  42.9971 156.3952 0002526 266.3755  93.6824 15.70897977 76320
STARLINK-11563 [DTC]    
1 63053U 25035B   26164.26295169  .00176877  00000+0  13483-2 0  9997
2 63053  42.9977 159.1207 0001644 232.5941 127.4777 15.70919379 76147
STARLINK-11347 [DTC]    
1 63054U 25035C   26164.86705722  .00203473  00000+0  15378-2 0  9993
2 63054  42.9978 155.9244 0002149 241.0644 119.0008 15.71039282 76343
STARLINK-11558 [DTC]    
1 63055U 25035D   26164.87755256  .00166262  00000+0  12717-2 0  9990
2 63055  42.9983 155.1150 0001122 244.6532 115.4219 15.70872176 76242
STARLINK-11392 [DTC]    
1 63056U 25035E   26164.00002315  .00072093  00000+0  56249-3 0  9994
2 63056  42.9997 161.0005 0001449 276.1665 275.0529 15.70753995  5956
STARLINK-11406 [DTC]    
1 63057U 25035F   26164.26826021  .00159658  00000+0  12264-2 0  9992
2 63057  43.0018 159.1554 0002265 251.2054 108.8568 15.70792234 76136
STARLINK-11418 [DTC]    
1 63058U 25035G   26164.87236823  .00155623  00000+0  11929-2 0  9990
2 63058  43.0004 155.9673 0001982 252.2000 107.8651 15.70855885 76229
STARLINK-11509 [DTC]    
1 63059U 25035H   26164.67100231  .00185657  00000+0  14155-2 0  9996
2 63059  42.9987 157.0288 0002286 288.4439  71.6180 15.70886534 76194
STARLINK-11403 [DTC]    
1 63060U 25035J   26164.27886046  .00017499  00000+0  13943-3 0  9992
2 63060  43.0028 159.2423 0003257 266.1764  93.8731 15.70862814 76252
STARLINK-11409 [DTC]    
1 63061U 25035K   26164.28510051  .00155458  00000+0  11885-2 0  9994
2 63061  43.0021 159.2900 0000586 145.5712 214.5193 15.70920841 76250
STARLINK-11412 [DTC]    
1 63062U 25035L   26164.27356946  .00171128  00000+0  13106-2 0  9995
2 63062  42.9984 159.1968 0001080 212.9685 147.1115 15.70826375 76250
STARLINK-11399 [DTC]    
1 63063U 25035M   26164.69742384  .00294122  00000+0  22077-2 0  9994
2 63063  42.9983 156.3438 0001308 285.8609  74.2115 15.70923650 76321
STARLINK-11408 [DTC]    
1 63064U 25035N   26164.69211399  .00158212  00000+0  12128-2 0  9997
2 63064  42.9991 156.2998 0000994 251.4370 108.6390 15.70847768 76327
STARLINK-33635          
1 63065U 25035P   26164.17725554  .00018966  00000+0  69663-3 0  9992
2 63065  43.0022 327.7915 0001031 265.7273  94.3461 15.27595012 74335
STARLINK-33622          
1 63066U 25035Q   26164.15926385  .00027233  00000+0  99490-3 0  9994
2 63066  42.9981 327.6477 0001344 270.6794  89.3904 15.27599302 74332
STARLINK-33628          
1 63067U 25035R   26164.71834633  .00019317  00000+0  70969-3 0  9995
2 63067  43.0074 324.9727 0000711 254.6688 105.4085 15.27578865 74417
STARLINK-33627          
1 63068U 25035S   26164.71064466  .00022121  00000+0  81113-3 0  9995
2 63068  43.0045 324.9113 0004429 279.9289  80.1063 15.27567281 74406
STARLINK-33620          
1 63069U 25035T   26164.18369299  .00025373  00000+0  92821-3 0  9999
2 63069  43.0050 327.8358 0000845 269.4562  90.6193 15.27586467 74320
STARLINK-33604          
1 63070U 25035U   26164.73246956  .00010975  00000+0  40757-3 0  9999
2 63070  43.0012 325.0832 0001050 255.1447 104.9289 15.27593820 74405
