OBJECT_NAME,OBJECT_ID,EPOCH,MEAN_MOTION,ECCENTRICITY,INCLINATION,RA_OF_ASC_NODE,ARG_OF_PERICENTER,MEAN_ANOMALY,EPHEMERIS_TYPE,CLASSIFICATION_TYPE,NORAD_CAT_ID,ELEMENT_SET_NO,REV_AT_EPOCH,BSTAR,MEAN_MOTION_DOT,MEAN_MOTION_DDOT
STARLINK-32820,2025-034N,2026-06-13T18:02:48.300288,15.30245900,.000144,53.1596,171.9757,85.7372,274.3794,0,U,63041,999,7379,.11125E-2,.32783E-3,0
STARLINK-32795,2025-034P,2026-06-13T17:40:13.192320,15.34411823,.0001448,53.1591,171.1676,91.8734,268.2434,0,U,63042,999,7380,.34386E-3,.11263E-3,0
STARLINK-32827,2025-034Q,2026-06-13T18:46:58.852704,15.34399306,.0001164,53.1581,183.5345,65.6496,294.4628,0,U,63043,999,7363,.79497E-3,.26578E-3,0
STARLINK-32735,2025-034R,2026-06-13T18:19:42.015072,15.34411704,.0001231,53.1583,183.4166,98.5626,261.5517,0,U,63044,999,7363,.42869E-3,.14141E-3,0
STARLINK-32828,2025-034S,2026-06-13T21:10:12.516384,15.30201504,.0001304,53.1555,184.1501,110.1112,250.0029,0,U,63045,999,7363,.65441E-3,.19073E-3,0
STARLINK-32738,2025-034T,2026-06-13T07:32:07.274976,15.34393018,.00004967,53.1581,173.5092,63.9792,296.1262,0,U,63046,999,7373,.4916035E-3,.16266E-3,0
STARLINK-32590,2025-034U,2026-06-13T18:05:53.759616,15.30159890,.00009,53.1581,171.9930,56.2813,303.8273,0,U,63047,999,7378,.61545E-3,.1789E-3,0
STARLINK-32790,2025-034V,2026-06-13T17:10:02.833248,15.34397371,.0001269,53.1561,171.7497,105.4098,254.7045,0,U,63048,999,7379,.72512E-3,.242E-3,0
STARLINK-32829,2025-034W,2026-06-13T18:43:56.788032,15.34396982,.0001446,53.1572,183.5180,98.7679,261.3488,0,U,63049,999,7363,.6139E-3,.2042E-3,0
STARLINK-32816,2025-034X,2026-06-13T18:40:55.075872,15.34406563,.0001082,53.1573,183.5033,91.6476,268.4651,0,U,63050,999,7363,.94566E-3,.31716E-3,0
STARLINK-32835,2025-034Y,2026-06-13T18:22:44.374368,15.34402471,.0001244,53.1587,183.4331,79.1527,280.9616,0,U,63051,999,7363,.60342E-3,.20068E-3,0
STARLINK-11550 [DTC],2025-035A,2026-06-13T16:51:55.836576,15.70897977,.0002526,42.9971,156.3952,266.3755,93.6824,0,U,63052,999,7632,.14579E-2,.191466E-2,0
STARLINK-11563 [DTC],2025-035B,2026-06-13T06:18:39.026016,15.70919379,.0001644,42.9977,159.1207,232.5941,127.4777,0,U,63053,999,7614,.13483E-2,.176877E-2,0
STARLINK-11347 [DTC],2025-035C,2026-06-13T20:48:33.743808,15.71039282,.0002149,42.9978,155.9244,241.0644,119.0008,0,U,63054,999,7634,.15378E-2,.203473E-2,0
STARLINK-11558 [DTC],2025-035D,2026-06-13T21:03:40.541184,15.70872176,.0001122,42.9983,155.1150,244.6532,115.4219,0,U,63055,999,7624,.12717E-2,.166262E-2,0
STARLINK-11392 [DTC],2025-035E,2026-06-13T00:00:02.000160,15.70753995,.00014493,42.9997,161.0005,276.1665,275.0529,0,U,63056,999,595,.56248984E-3,.72093E-3,0
STARLINK-11406 [DTC],2025-035F,2026-06-13T06:26:17.682144,15.70792234,.0002265,43.0018,159.1554,251.2054,108.8568,0,U,63057,999,7613,.12264E-2,.159658E-2,0
STARLINK-11418 [DTC],2025-035G,2026-06-13T20:56:12.615072,15.70855885,.0001982,43.0004,155.9673,252.2000,107.8651,0,U,63058,999,7622,.11929E-2,.155623E-2,0
STARLINK-11509 [DTC],2025-035H,2026-06-13T16:06:14.599584,15.70886534,.0002286,42.9987,157.0288,288.4439,71.6180,0,U,63059,999,7619,.14155E-2,.185657E-2,0
STARLINK-11403 [DTC],2025-035J,2026-06-13T06:41:33.543744,15.70862814,.0003257,43.0028,159.2423,266.1764,93.8731,0,U,63060,999,7625,.13943E-3,.17499E-3,0
STARLINK-11409 [DTC],2025-035K,2026-06-13T06:50:32.684064,15.70920841,.0000586,43.0021,159.2900,145.5712,214.5193,0,U,63061,999,7625,.11885E-2,.155458E-2,0
STARLINK-11412 [DTC],2025-035L,2026-06-13T06:33:56.401344,15.70826375,.000108,42.9984,159.1968,212.9685,147.1115,0,U,63062,999,7625,.13106E-2,.171128E-2,0
STARLINK-11399 [DTC],2025-035M,2026-06-13T16:44:17.419776,15.70923650,.0001308,42.9983,156.3438,285.8609,74.2115,0,U,63063,999,7632,.22077E-2,.294122E-2,0
STARLINK-11408 [DTC],2025-035N,2026-06-13T16:36:38.648736,15.70847768,.0000994,42.9991,156.2998,251.4370,108.6390,0,U,63064,999,7632,.12128E-2,.158212E-2,0
STARLINK-33635,2025-035P,2026-06-13T04:15:14.878656,15.27595012,.00010314,43.0022,327.7915,265.7273,94.3461,0,U,63065,999,7433,.69662956E-3,.18966E-3,0
STARLINK-33622,2025-035Q,2026-06-13T03:49:20.396640,15.27599302,.00013442,42.9981,327.6477,270.6794,89.3904,0,U,63066,999,7433,.99490417E-3,.27233E-3,0
STARLINK-33628,2025-035R,2026-06-13T17:14:25.122912,15.27578865,.0000711,43.0074,324.9727,254.6688,105.4085,0,U,63067,999,7441,.70969E-3,.19317E-3,0
STARLINK-33627,2025-035S,2026-06-13T17:03:19.698624,15.27567281,.0004429,43.0045,324.9113,279.9289,80.1063,0,U,63068,999,7440,.81113E-3,.22121E-3,0
STARLINK-33620,2025-035T,2026-06-13T04:24:31.074336,15.27586467,.0000845,43.0050,327.8358,269.4562,90.6193,0,U,63069,999,7432,.92820538E-3,.25373E-3,0
STARLINK-33604,2025-035U,2026-06-13T17:34:45.369984,15.27593820,.000105,43.0012,325.0832,255.1447,104.9289,0,U,63070,999,7440,.40757E-3,.10975E-3,0
